{"type": "FeatureCollection", "features": [ {"type": "Feature", "properties": {"norad_id": 66052, "name": "HRC MONOBLOCK CAMERA", "group": "stations", "lat": -7.190367701167561, "lon": -37.29336523631381, "alt_km": 403.79547003158495, "timestamp": "2025-12-13T15:35:10.899786+00:00", "meta": {"OBJECT_NAME": "HRC MONOBLOCK CAMERA", "OBJECT_ID": "1998-067XR", "EPOCH": "2025-12-12T23:20:39.577920", "MEAN_MOTION": 15.54154982, "ECCENTRICITY": 0.00033119, "INCLINATION": 51.6292, "RA_OF_ASC_NODE": 140.346, "ARG_OF_PERICENTER": 185.3719, "MEAN_ANOMALY": 174.7237, "EPHEMERIS_TYPE": 0, "CLASSIFICATION_TYPE": "U", "NORAD_CAT_ID": 66052, "ELEMENT_SET_NO": 999, "REV_AT_EPOCH": 887, "BSTAR": 0.00076587258, "MEAN_MOTION_DOT": 0.00050598, "MEAN_MOTION_DDOT": 0}, "tle": {"line1": "1 66052U 98067XR  25346.97268030  .00050598  00000+0  76587-3 0  9996", "line2": "2 66052  51.6292 140.3460 0003311 185.3719 174.7237 15.54154982  8874"}}, "geometry": {"type": "Point", "coordinates": [-37.29336523631381, -7.190367701167561]}}, {"type": "Feature", "properties": {"norad_id": 66174, "name": "HTV-X1", "group": "stations", "lat": 46.129461179180666, "lon": -166.5232847736835, "alt_km": 413.8432599117268, "timestamp": "2025-12-13T15:35:10.899796+00:00", "meta": {"OBJECT_NAME": "HTV-X1", "OBJECT_ID": "2025-241A", "EPOCH": "2025-12-12T20:43:30.984384", "MEAN_MOTION": 15.49550036, "ECCENTRICITY": 0.00032451, "INCLINATION": 51.6304, "RA_OF_ASC_NODE": 141.8664, "ARG_OF_PERICENTER": 240.6311, "MEAN_ANOMALY": 119.4354, "EPHEMERIS_TYPE": 0, "CLASSIFICATION_TYPE": "U", "NORAD_CAT_ID": 66174, "ELEMENT_SET_NO": 999, "REV_AT_EPOCH": 51, "BSTAR": 0.00025741225, "MEAN_MOTION_DOT": 0.00014033, "MEAN_MOTION_DDOT": 0}, "tle": {"line1": "1 66174U 25241A   25346.86355306  .00014033  00000+0  25741-3 0  9996", "line2": "2 66174  51.6304 141.8664 0003245 240.6311 119.4354 15.49550036   517"}}, "geometry": {"type": "Point", "coordinates": [-166.5232847736835, 46.129461179180666]}}, {"type": "Feature", "properties": {"norad_id": 66515, "name": "SZ-21 MODULE", "group": "stations", "lat": 28.93010016393206, "lon": 151.76287412101297, "alt_km": 378.4957713147669, "timestamp": "2025-12-13T15:35:10.899806+00:00", "meta": {"OBJECT_NAME": "SZ-21 MODULE", "OBJECT_ID": "2025-246C", "EPOCH": "2025-12-12T19:04:39.587232", "MEAN_MOTION": 15.62483203, "ECCENTRICITY": 0.00063063, "INCLINATION": 41.4775, "RA_OF_ASC_NODE": 15.7097, "ARG_OF_PERICENTER": 260.6775, "MEAN_ANOMALY": 99.3351, "EPHEMERIS_TYPE": 0, "CLASSIFICATION_TYPE": "U", "NORAD_CAT_ID": 66515, "ELEMENT_SET_NO": 999, "REV_AT_EPOCH": 445, "BSTAR": 0.00036064759, "MEAN_MOTION_DOT": 0.00032837, "MEAN_MOTION_DDOT": 0}, "tle": {"line1": "1 66515U 25246C   25346.79490263  .00032837  00000+0  36065-3 0  9997", "line2": "2 66515  41.4775  15.7097 0006306 260.6775  99.3351 15.62483203  4457"}}, "geometry": {"type": "Point", "coordinates": [151.76287412101297, 28.93010016393206]}}, {"type": "Feature", "properties": {"norad_id": 66645, "name": "SHENZHOU-22", "group": "stations", "lat": -21.680704118054635, "lon": -142.06105837112085, "alt_km": 397.40813977590005, "timestamp": "2025-12-13T15:35:10.899816+00:00", "meta": {"OBJECT_NAME": "SHENZHOU-22", "OBJECT_ID": "2025-272A", "EPOCH": "2025-12-12T23:18:04.584096", "MEAN_MOTION": 15.5917806, "ECCENTRICITY": 0.00082454, "INCLINATION": 41.4684, "RA_OF_ASC_NODE": 15.3046, "ARG_OF_PERICENTER": 32.5257, "MEAN_ANOMALY": 327.6088, "EPHEMERIS_TYPE": 0, "CLASSIFICATION_TYPE": "U", "NORAD_CAT_ID": 66645, "ELEMENT_SET_NO": 999, "REV_AT_EPOCH": 26357, "BSTAR": 0.00033032775, "MEAN_MOTION_DOT": 0.00026417, "MEAN_MOTION_DDOT": 0}, "tle": {"line1": "1 66645U 25272A   25346.97088639  .00026417  00000+0  33033-3 0  9999", "line2": "2 66645  41.4684  15.3046 0008245  32.5257 327.6088 15.59178060263577"}}, "geometry": {"type": "Point", "coordinates": [-142.06105837112085, -21.680704118054635]}}, {"type": "Feature", "properties": {"norad_id": 66664, "name": "SOYUZ-MS 28", "group": "stations", "lat": 46.129462040313626, "lon": -166.52328226720257, "alt_km": 413.843259780836, "timestamp": "2025-12-13T15:35:10.899826+00:00", "meta": {"OBJECT_NAME": "SOYUZ-MS 28", "OBJECT_ID": "2025-275A", "EPOCH": "2025-12-12T20:43:30.984384", "MEAN_MOTION": 15.49550036, "ECCENTRICITY": 0.00032451, "INCLINATION": 51.6304, "RA_OF_ASC_NODE": 141.8664, "ARG_OF_PERICENTER": 240.6311, "MEAN_ANOMALY": 119.4354, "EPHEMERIS_TYPE": 0, "CLASSIFICATION_TYPE": "U", "NORAD_CAT_ID": 66664, "ELEMENT_SET_NO": 999, "REV_AT_EPOCH": 128, "BSTAR": 0.00025741225, "MEAN_MOTION_DOT": 0.00014033, "MEAN_MOTION_DDOT": 0}, "tle": {"line1": "1 66664U 25275A   25346.86355306  .00014033  00000+0  25741-3 0  9997", "line2": "2 66664  51.6304 141.8664 0003245 240.6311 119.4354 15.49550036  1286"}}, "geometry": {"type": "Point", "coordinates": [-166.52328226720257, 46.129462040313626]}}, {"type": "Feature", "properties": {"norad_id": 66906, "name": "1998-067XS", "group": "stations", "lat": 50.5619078071978, "lon": -116.52158912760625, "alt_km": 408.5848057984522, "timestamp": "2025-12-13T15:35:10.899839+00:00", "meta": {"OBJECT_NAME": "1998-067XS", "OBJECT_ID": "1998-067XS", "EPOCH": "2025-12-12T17:30:10.785600", "MEAN_MOTION": 15.50562979, "ECCENTRICITY": 0.00036025, "INCLINATION": 51.6293, "RA_OF_ASC_NODE": 142.4703, "ARG_OF_PERICENTER": 202.1444, "MEAN_ANOMALY": 157.939, "EPHEMERIS_TYPE": 0, "CLASSIFICATION_TYPE": "U", "NORAD_CAT_ID": 66906, "ELEMENT_SET_NO": 999, "REV_AT_EPOCH": 161, "BSTAR": 0.00063717141, "MEAN_MOTION_DOT": 0.00036816, "MEAN_MOTION_DDOT": 0}, "tle": {"line1": "1 66906U 98067XS  25346.72929150  .00036816  00000+0  63717-3 0  9992", "line2": "2 66906  51.6293 142.4703 0003602 202.1444 157.9390 15.50562979  1615"}}, "geometry": {"type": "Point", "coordinates": [-116.52158912760625, 50.5619078071978]}}, {"type": "Feature", "properties": {"norad_id": 66907, "name": "1998-067XT", "group": "stations", "lat": 43.76878515743203, "lon": -91.5060747223301, "alt_km": 407.2500777602081, "timestamp": "2025-12-13T15:35:10.899849+00:00", "meta": {"OBJECT_NAME": "1998-067XT", "OBJECT_ID": "1998-067XT", "EPOCH": "2025-12-12T17:26:16.026432", "MEAN_MOTION": 15.5143678, "ECCENTRICITY": 0.00044769, "INCLINATION": 51.6298, "RA_OF_ASC_NODE": 142.4529, "ARG_OF_PERICENTER": 226.787, "MEAN_ANOMALY": 133.2746, "EPHEMERIS_TYPE": 0, "CLASSIFICATION_TYPE": "U", "NORAD_CAT_ID": 66907, "ELEMENT_SET_NO": 999, "REV_AT_EPOCH": 161, "BSTAR": 0.0013978666, "MEAN_MOTION_DOT": 0.0008442, "MEAN_MOTION_DDOT": 0}, "tle": {"line1": "1 66907U 98067XT  25346.72657438  .00084420  00000+0  13979-2 0  9998", "line2": "2 66907  51.6298 142.4529 0004476 226.7870 133.2746 15.51436780  1615"}}, "geometry": {"type": "Point", "coordinates": [-91.5060747223301, 43.76878515743203]}}, {"type": "Feature", "properties": {"norad_id": 66908, "name": "1998-067XU", "group": "stations", "lat": 42.645821520284464, "lon": -89.00179570508598, "alt_km": 406.98906701405394, "timestamp": "2025-12-13T15:35:10.899859+00:00", "meta": {"OBJECT_NAME": "1998-067XU", "OBJECT_ID": "1998-067XU", "EPOCH": "2025-12-12T22:04:02.533728", "MEAN_MOTION": 15.51556229, "ECCENTRICITY": 0.0004575, "INCLINATION": 51.6297, "RA_OF_ASC_NODE": 141.4904, "ARG_OF_PERICENTER": 226.416, "MEAN_ANOMALY": 133.645, "EPHEMERIS_TYPE": 0, "CLASSIFICATION_TYPE": "U", "NORAD_CAT_ID": 66908, "ELEMENT_SET_NO": 999, "REV_AT_EPOCH": 164, "BSTAR": 0.0015461789, "MEAN_MOTION_DOT": 0.00093943, "MEAN_MOTION_DDOT": 0}, "tle": {"line1": "1 66908U 98067XU  25346.91947377  .00093943  00000+0  15462-2 0  9993", "line2": "2 66908  51.6297 141.4904 0004575 226.4160 133.6450 15.51556229  1640"}}, "geometry": {"type": "Point", "coordinates": [-89.00179570508598, 42.645821520284464]}}, {"type": "Feature", "properties": {"norad_id": 66909, "name": "SILVERSAT", "group": "stations", "lat": 41.324503107137005, "lon": -86.30231314681629, "alt_km": 406.8446917161409, "timestamp": "2025-12-13T15:35:10.899869+00:00", "meta": {"OBJECT_NAME": "SILVERSAT", "OBJECT_ID": "1998-067XV", "EPOCH": "2025-12-12T22:03:29.727648", "MEAN_MOTION": 15.51661311, "ECCENTRICITY": 0.00044499, "INCLINATION": 51.6297, "RA_OF_ASC_NODE": 141.4878, "ARG_OF_PERICENTER": 228.6613, "MEAN_ANOMALY": 131.3994, "EPHEMERIS_TYPE": 0, "CLASSIFICATION_TYPE": "U", "NORAD_CAT_ID": 66909, "ELEMENT_SET_NO": 999, "REV_AT_EPOCH": 164, "BSTAR": 0.0015570359, "MEAN_MOTION_DOT": 0.00094974, "MEAN_MOTION_DDOT": 0}, "tle": {"line1": "1 66909U 98067XV  25346.91909407  .00094974  00000+0  15570-2 0  9991", "line2": "2 66909  51.6297 141.4878 0004449 228.6613 131.3994 15.51661311  1645"}}, "geometry": {"type": "Point", "coordinates": [-86.30231314681629, 41.324503107137005]}}, {"type": "Feature", "properties": {"norad_id": 66910, "name": "1998-067XW", "group": "stations", "lat": 36.06956318894032, "lon": -77.40816627905959, "alt_km": 405.85705058018357, "timestamp": "2025-12-13T15:35:10.899879+00:00", "meta": {"OBJECT_NAME": "1998-067XW", "OBJECT_ID": "1998-067XW", "EPOCH": "2025-12-12T20:28:35.609952", "MEAN_MOTION": 15.51770354, "ECCENTRICITY": 0.00052525, "INCLINATION": 51.6298, "RA_OF_ASC_NODE": 141.7982, "ARG_OF_PERICENTER": 209.4111, "MEAN_ANOMALY": 150.6584, "EPHEMERIS_TYPE": 0, "CLASSIFICATION_TYPE": "U", "NORAD_CAT_ID": 66910, "ELEMENT_SET_NO": 999, "REV_AT_EPOCH": 163, "BSTAR": 0.001333891, "MEAN_MOTION_DOT": 0.00081487, "MEAN_MOTION_DDOT": 0}, "tle": {"line1": "1 66910U 98067XW  25346.85318993  .00081487  00000+0  13339-2 0  9996", "line2": "2 66910  51.6298 141.7982 0005252 209.4111 150.6584 15.51770354  1636"}}, "geometry": {"type": "Point", "coordinates": [-77.40816627905959, 36.06956318894032]}}]}